satname,norad_id,inclination_deg,eccentricity,mean_motion_rev_per_day,perigee_km,apogee_km,l1,l2
STARLINK-1573,46061,53.1585,0.000119,15.31696938,469.93410545489496,471.56414035214584,1 46061U 20055AL  26187.55201188  .00003657  00000+0  12955-3 0  9998,2 46061  53.1585 280.8597 0001190 108.0226 252.0905 15.31696938327281
STARLINK-1577,46063,53.1596,0.0001286,15.31693303,469.87919055801194,471.6407268557914,1 46063U 20055AN  26187.57996737 -.00001629  00000+0 -40740-4 0  9996,2 46063  53.1596 280.7262 0001286  65.2041 294.9094 15.31693303327285
STARLINK-1583,46064,53.1592,0.0001102,15.31692568,470.0074010341996,471.5168984067968,1 46064U 20055AP  26187.52877256  .00000370  00000+0  23682-4 0  9992,2 46064  53.1592 281.4634 0001102  86.1474 273.9654 15.31692568327261
STARLINK-1536,46070,53.158,0.0001303,15.31701121,469.8442453479556,471.62906182207917,1 46070U 20055AV  26187.53008632  .00008061  00000+0  27124-3 0  9993,2 46070  53.1580 268.8450 0001303  77.0604 283.0543 15.31701121327442
STARLINK-1542,46073,53.1586,0.0001184,15.31684346,469.97574682123286,471.5975719437756,1 46073U 20055AY  26187.48920214 -.00000188  00000+0  56989-5 0  9995,2 46073  53.1586 272.0044 0001184  63.7761 296.3362 15.31684346327388
STARLINK-1549,46074,53.0488,9.36e-05,15.34055521,463.08689748226425,464.3676944784729,1 46074U 20055AZ  26187.83597330  .00025170  00000+0  76176-3 0  9999,2 46074  53.0488 267.1626 0000936  91.0883 269.0225 15.34055521327467
STARLINK-1551,46075,53.1593,0.0001264,15.31696971,469.88332533841003,471.61472372541175,1 46075U 20055BA  26187.52107547  .00002066  00000+0  78331-4 0  9998,2 46075  53.1593 268.8250 0001264  76.6134 283.5008 15.31696971327434
STARLINK-1552,46076,53.1574,0.0001114,15.3168702,470.0157189958027,471.541657411135,1 46076U 20055BB  26187.50704612  .00014359  00000+0  47377-3 0  9996,2 46076  53.1574 268.4712 0001114  71.6953 288.4169 15.31687020327427
STARLINK-1559,46077,53.0219,0.0003801,15.41147886,440.1277082630104,445.31292399473205,1 46077U 20055BC  26187.41939432  .00035667  00000+0  85325-3 0  9997,2 46077  53.0219 236.3143 0003801  11.8057 348.3035 15.41147886327825
STARLINK-1566,46079,53.1587,0.0001231,15.31696574,469.9071099571065,471.59330598770885,1 46079U 20055BE  26187.51166971 -.00002018  00000+0 -53277-4 0  9998,2 46079  53.1587 268.3053 0001231  96.1659 263.9483 15.31696574327449
STARLINK-1568,46080,53.056,0.0003172,15.56812169,394.7409496712153,399.03902679255043,1 46080U 20055BF  26187.53433943  .00038088  00000+0  52603-3 0  9993,2 46080  53.0560 181.5070 0003172  86.2026 273.9347 15.56812169328640
STARLINK-1578,46082,53.159,0.0001243,15.31692187,469.911967165609,471.6146037765766,1 46082U 20055BH  26187.45081286 -.00002715  00000+0 -75766-4 0  9991,2 46082  53.1590 269.1062 0001243  97.4264 262.6879 15.31692187327424
STARLINK-1579,46083,53.1564,0.0001273,15.31715975,469.8205190163644,471.5642309752384,1 46083U 20055BJ  26187.43710816  .00001695  00000+0  66332-4 0  9991,2 46083  53.1564 268.7013 0001273  82.0883 278.0263 15.31715975327426
STARLINK-1622,46128,53.01,0.0008915,16.02063129,262.7803952264294,274.63171639494067,1 46128U 20057M   26187.72335885  .00475586  11193-3  80475-3 0  9990,2 46128  53.0100 348.4295 0008915 286.4376  73.5673 16.02063129326154
STARLINK-1623,46129,53.0366,0.0002211,15.83956827,317.7828747875692,320.7444653638777,1 46129U 20057N   26187.83335647  .00146000  00000+0  63264-3 0  9993,2 46129  53.0366  28.9875 0002211 196.7653 341.5230 15.83956827  5882
STARLINK-1596,46141,53.0327,0.0002813,15.65295201,370.49097587466986,374.28882230809904,1 46141U 20057AA  26187.68141392  .00107736  00000+0  10556-2 0  9990,2 46141  53.0327  15.6846 0002813 170.1079 189.9992 15.65295201325785
STARLINK-1597,46142,53.0369,0.0003757,15.82758891,320.1251165051017,325.1600822960918,1 46142U 20057AB  26187.83335647  .00101044  00000+0  46659-3 0  9996,2 46142  53.0369  68.8500 0003757 180.6910  72.9104 15.82758891  6046
STARLINK-1608,46146,53.1587,0.0005607,15.38844518,445.6967307702489,453.353270938007,1 46146U 20057AF  26187.00132302  .00107866  00000+0  27362-2 0  9999,2 46146  53.1587 116.9995 0005607  76.6671 283.4959 15.38844518324335
STARLINK-1545,46156,53.03,0.0009649,16.10525901,239.0099474420049,251.79205107297184,1 46156U 20057AR  26187.54491133  .00939564  52308-3  93834-3 0  9997,2 46156  53.0300  24.2729 0009649 276.7334  83.2601 16.10525901326899
STARLINK-1595,46159,53.0387,0.0003955,15.79841955,328.23461889826376,333.5414577035599,1 46159U 20057AU  26187.83335647  .00110811  00000+0  58442-3 0  9999,2 46159  53.0387  72.1237 0003955 159.1213  21.1915 15.79841955  5872
STARLINK-1598,46160,53.0417,0.0002068,15.78544084,333.17676553916954,335.9531390666407,1 46160U 20057AV  26187.83335647  .00006653  00000+0  41251-4 0  9990,2 46160  53.0417  58.4443 0002068 258.3149 353.9887 15.78544084  6022
STARLINK-1626,46167,53.038,0.0004099,15.83455924,317.93016831986824,323.42185522691943,1 46167U 20057BC  26187.83335647  .00123432  00000+0  54942-3 0  9992,2 46167  53.0380  67.0498 0004099 224.6026 137.2772 15.83455924  6037
STARLINK-1633,46171,53.0282,0.0008076,15.97564137,275.80117949744727,286.55730709361706,1 46171U 20057BG  26187.83335647  .00350860  61425-4  77031-3 0  9991,2 46171  53.0282  25.9093 0008076 273.3790  15.5081 15.97564137  6061
STARLINK-1635,46172,53.0206,0.0013581,16.35614871,168.59040680933776,186.3968106687944,1 46172U 20057BH  26187.95152197  .06619212  12259-4  77028-3 0  9994,2 46172  53.0206  20.5037 0013581 276.6698  83.2800 16.35614871326988
STARLINK-1640,46173,53.0368,0.0003536,15.80077378,327.84954046795247,332.59369168124067,1 46173U 20057BJ  26187.83335647  .00039823  00000+0  21185-3 0  9992,2 46173  53.0368  73.1325 0003536 159.0956 186.1864 15.80077378  6029
STARLINK-1641,46174,53.0442,0.0002529,15.67804137,363.4807385032,366.8915113397852,1 46174U 20057BK  26187.83335647 -.00002489  00000+0 -17086-4 0  9999,2 46174  53.0442  67.1344 0002529 220.8855  71.7901 15.67804137  6008
STARLINK-1695,46329,53.0382,0.0003112,15.83580787,318.23931846274354,322.4084405141375,1 46329U 20062E   26187.83335647  .00148464  00000+0  65456-3 0  9992,2 46329  53.0382 109.9441 0003112 203.9174  17.0548 15.83580787  5921
STARLINK-1719,46331,53.0281,0.0003952,15.94316216,287.58502414972736,292.85569380626384,1 46331U 20062G   26187.83335647  .00341750  56723-4  89816-3 0  9992,2 46331  53.0281 107.7363 0003952 193.6853 280.9768 15.94316216  5945
